STARLINK-4151           
1 53034C 22076BA  26117.24840278  .00035554  00000+0  22295-2 0  1179
2 53034  53.2151 216.1794 0001169  91.7359 240.5584 15.08820150    14
STARLINK-4157           
1 53035C 22076BB  26117.29076389  .00016318  00000+0  10231-2 0  1173
2 53035  53.2162 215.9404 0001190  97.0770 190.6450 15.08835877    11
STARLINK-4155           
1 53036C 22076BC  26117.23659722  .00040088  00000+0  25141-2 0  1173
2 53036  53.2163 216.1834 0001136  84.4028 288.9583 15.08814417    14
STARLINK-4153           
1 53037C 22076BD  26117.22756944  .00043357  00000+0  27188-2 0  1172
2 53037  53.2163 216.2236 0000999  86.9202 257.3627 15.08817062    17
STARLINK-4156           
1 53038C 22076BE  26117.25604167  .00027842  00000+0  17459-2 0  1176
2 53038  53.2164 216.0953 0001185  96.4688  62.5612 15.08824890    12
STARLINK-4362           
1 53043C 22077A   26117.25118056 -.00010238  00000+0 -71113-3 0  1171
2 53043  97.5623 297.9017 0001755  90.9315  47.7158 15.05645952    14
STARLINK-4349           
1 53044C 22077B   26117.24701389  .00903130  00000+0  63298-3 0  1173
2 53044  97.5697 313.4637 0004304 179.2305 147.7243 16.15835869    17
STARLINK-4350           
1 53045C 22077C   26117.26020833 -.00012526  00000+0 -87008-3 0  1171
2 53045  97.5622 299.0702 0001729  83.4591 351.7409 15.05645751    17
STARLINK-4331           
1 53046C 22077D   26117.23798611 -.00019434  00000+0 -13498-2 0  1171
2 53046  97.5624 299.1420 0001555  87.8325  91.9440 15.05651069    15
STARLINK-4352           
1 53047C 22077E   26117.23729167 -.00020494  00000+0 -14235-2 0  1170
2 53047  97.5624 297.9471 0001015  92.8553 150.5322 15.05649841    14
STARLINK-4355           
1 53048C 22077F   26117.26576389 -.00000218  00000+0 -15139-4 0  1178
2 53048  97.5622 299.1029 0001877  91.2226  89.0579 15.05642900    11
STARLINK-4345           
1 53049C 22077G   26117.23520833 -.00017621  00000+0 -12239-2 0  1171
2 53049  97.5623 297.9077 0001547  88.1617  83.9511 15.05648172    11
STARLINK-4343           
1 53050C 22077H   26117.26368056 -.00013188  00000+0 -91601-3 0  1178
2 53050  97.5623 299.0452 0001351  87.1923 321.8305 15.05646236    19
STARLINK-4336           
1 53051C 22077J   26117.27756944  .00010527  00000+0  73124-3 0  1179
2 53051  97.5621 297.9128 0001449  96.0010 230.5380 15.05633407    14
STARLINK-4341           
1 53052C 22077K   26117.28173611  .00009141  00000+0  63492-3 0  1172
2 53052  97.5621 297.9503 0001454  94.2880 314.8724 15.05635328    15
STARLINK-4337           
1 53053C 22077L   26117.26229167  .00002213  00000+0  15370-3 0  1174
2 53053  97.5623 297.8952 0002333  87.2136 171.5349 15.05641860    17
STARLINK-4339           
1 53054C 22077M   26117.23312500 -.00033192  00000+0 -23051-2 0  1172
2 53054  97.5623 299.0894 0001636  87.0915 351.3701 15.05661952    19
STARLINK-4338           
1 53055C 22077N   26117.25604167 -.00008770  00000+0 -60914-3 0  1172
2 53055  97.5627 299.0248 0001262  87.9610 309.6844 15.05647249    10
STARLINK-4314           
1 53056C 22077P   26117.28451389  .00003711  00000+0  25778-3 0  1179
2 53056  97.5621 299.0937 0001190 103.4045 163.4585 15.05639512    18
STARLINK-4252           
1 53057C 22077Q   26117.28798611  .00015069  00000+0  10467-2 0  1179
2 53057  97.5619 299.1743 0000112  70.7095  79.9332 15.05631751    14
STARLINK-4317           
1 53058C 22077R   26117.23312500 -.00006610  00000+0 -45824-3 0  1174
2 53058  97.5623 297.9970 0001058 121.2375 294.4621 15.05716202    11
STARLINK-4320           
1 53059C 22077S   26117.24701389 -.00023555  00000+0 -16361-2 0  1173
2 53059  97.5633 297.9198 0001177  85.2258 240.8386 15.05652619    10
STARLINK-4305           
1 53060C 22077T   26117.24979167  .00025145  00000+0  17451-2 0  1172
2 53060  97.5625 297.8803 0001897  95.8581 110.2641 15.05658756    12
STARLINK-4308           
1 53061C 22077U   26117.24909722 -.00011459  00000+0 -79586-3 0  1176
2 53061  97.5636 297.9277 0001215  83.8452 283.4949 15.05650410    12
STARLINK-4311           
1 53062C 22077V   26117.27062500  .00002497  00000+0  17345-3 0  1179
2 53062  97.5619 298.0271 0001644  90.6101 183.3227 15.05638589    13
STARLINK-4307           
1 53063C 22077W   26117.24354167 -.00018366  00000+0 -12757-2 0  1175
2 53063  97.5625 298.9992 0001517  88.9737  90.9665 15.05650005    10
STARLINK-4313           
1 53064C 22077X   26117.28381944  .00011752  00000+0  81624-3 0  1173
2 53064  97.5621 299.0987 0001781  92.1850 245.9136 15.05634444    13
STARLINK-4312           
1 53065C 22077Y   26117.26506944 -.00000639  00000+0 -44377-4 0  1170
2 53065  97.5626 298.0267 0001592  90.0503 213.8170 15.05636864    11
STARLINK-4309           
1 53066C 22077Z   26117.24423611 -.00020749  00000+0 -14411-2 0  1176
2 53066  97.5636 297.9565 0002033  89.0815 341.9149 15.05652801    15
STARLINK-4325           
1 53068C 22077AB  26117.23243056 -.00024198  00000+0 -16807-2 0  1173
2 53068  97.5621 299.0448 0001854  89.1070   0.6201 15.05653798    12
STARLINK-4323           
1 53069C 22077AC  26117.28104167  .00010810  00000+0  75088-3 0  1179
2 53069  97.5635 297.9270 0001046  86.3390  79.0751 15.05634794    10
STARLINK-4342           
1 53070C 22077AD  26117.29631944  .00016118  00000+0  11195-2 0  1175
2 53070  97.5621 299.1959 0001255  86.4901 199.2825 15.05631122    15
STARLINK-4328           
1 53071C 22077AE  26117.27687500  .00002327  00000+0  16157-3 0  1174
2 53071  97.5620 299.1665 0002354 104.4083  90.9995 15.05653894    17
STARLINK-4344           
1 53072C 22077AF  26117.29284722  .00007427  00000+0  51585-3 0  1176
2 53072  97.5620 299.0701 0001683  88.9418 268.0770 15.05638518    15
STARLINK-4346           
1 53073C 22077AG  26117.18729167 -.00051987  00000+0 -23289-2 0  1173
2 53073  97.6381 305.9661 0006279  62.8290 230.3403 15.21331497    17
STARLINK-4310           
1 53074C 22077AH  26117.26923611  .00004231  00000+0  27327-3 0  1179
2 53074  97.5785 299.0545 0001706  87.5883 177.6973 15.08327598    18
STARLINK-4348           
1 53075C 22077AJ  26117.27270833  .00002730  00000+0  18980-3 0  1179
2 53075  97.5631 298.0400 0001071  90.6462 359.5689 15.05601227    17
STARLINK-4347           
1 53076C 22077AK  26117.23729167 -.00018119  00000+0 -12585-2 0  1179
2 53076  97.5630 297.9049 0001731  76.4218 271.9808 15.05647960    12
STARLINK-4322           
1 53078C 22077AM  26117.26368056 -.00001521  00000+0 -10562-3 0  1173
2 53078  97.5624 298.0240 0000681  96.0691 275.1408 15.05652129    13
STARLINK-4327           
1 53079C 22077AN  26117.27618056  .00006361  00000+0  44186-3 0  1177
2 53079  97.5622 299.1015 0001432  87.1145  14.5995 15.05635275    13
STARLINK-4330           
1 53080C 22077AP  26117.28520833  .00010012  00000+0  69541-3 0  1175
2 53080  97.5622 299.0801 0001351  88.9757 331.6554 15.05634906    19
STARLINK-4326           
1 53081C 22077AQ  26117.25256944 -.00010773  00000+0 -74827-3 0  1171
2 53081  97.5624 297.9179 0001840  87.2431  43.9178 15.05646486    12
STARLINK-4321           
1 53082C 22077AR  26117.26576389 -.00037195  00000+0 -25837-2 0  1174
2 53082  97.5621 297.8975 0001745  86.5277  26.1676 15.05655456    10
STARLINK-4251           
1 53083C 22077AS  26117.27409722  .00004705  00000+0  32682-3 0  1178
2 53083  97.5623 299.0396 0001630  90.0447 300.4175 15.05636585    10
STARLINK-4319           
1 53084C 22077AT  26117.23520833 -.00029254  00000+0 -20320-2 0  1175
2 53084  97.5626 299.0331 0001240 115.5920  79.1859 15.05654171    19
STARLINK-4324           
1 53085C 22077AU  26117.29631944  .00017096  00000+0  11874-2 0  1171
2 53085  97.5621 299.0540 0001595  87.4193   3.4209 15.05632598    17
STARLINK-4318           
1 53086C 22077AV  26117.27895833  .00009055  00000+0  62889-3 0  1178
2 53086  97.5621 298.0599 0001731  70.8948 128.0746 15.05638991    10
STARLINK-4333           
1 53088C 22077AX  26117.24979167 -.00015399  00000+0 -10694-2 0  1176
2 53088  97.5623 297.8838 0001689  90.0183 341.1019 15.05654298    13
STARLINK-4150           
1 53134C 22083C   26117.25256944 -.00024052  00000+0 -15086-2 0  1173
2 53134  53.2165 316.1135 0001534  87.8817  42.2853 15.08842798    19
STARLINK-4023           
1 53135C 22083D   26117.26854167 -.00018339  00000+0 -11500-2 0  1174
2 53135  53.2169 316.0419 0001463  93.3003  83.6719 15.08847031    13
STARLINK-4152           
1 53136C 22083E   26117.24770833 -.00026027  00000+0 -16324-2 0  1172
2 53136  53.2168 316.1363 0001380  91.9747 351.7780 15.08844234    18
STARLINK-4145           
1 53137C 22083F   26117.25534722 -.00023048  00000+0 -14454-2 0  1171
2 53137  53.2161 316.1005 0001522  90.3915  74.8720 15.08846679    15
STARLINK-4141           
1 53138C 22083G   26117.23104167 -.00028565  00000+0 -17915-2 0  1170
2 53138  53.2166 311.3919 0001386  88.7398 311.7998 15.08847290    16
STARLINK-4185           
1 53139C 22083H   26117.24493056 -.00026445  00000+0 -16586-2 0  1178
2 53139  53.2156 316.1485 0001000  86.7760  81.8661 15.08846165    13
STARLINK-4170           
1 53140C 22083J   26117.28798611 -.00008856  00000+0 -55546-3 0  1175
2 53140  53.2157 315.9538 0001365  88.5519 294.0903 15.08836385    18
STARLINK-4103           
1 53141C 22083K   26117.24076389 -.00029433  00000+0 -18457-2 0  1176
2 53141  53.2157 316.1690 0001897  90.6263 135.2571 15.08853220    15
STARLINK-4101           
1 53142C 22083L   26117.23104167 -.00029115  00000+0 -18259-2 0  1179
2 53142  53.2153 316.1846 0001393  85.5578  42.4301 15.08849500    14
STARLINK-4102           
1 53143C 22083M   26117.28104167 -.00011478  00000+0 -71992-3 0  1172
2 53143  53.2160 315.9874 0001326  90.6361  14.2774 15.08836102    19
STARLINK-4100           
1 53144C 22083N   26117.26784722 -.00020226  00000+0 -12688-2 0  1179
2 53144  53.2153 316.0556 0001479  83.9618 249.1298 15.08835899    12
